[{"OBJECT_NAME":"STARLINK-30111","OBJECT_ID":"2023-056S","EPOCH":"2026-03-09T22:00:01.999584","MEAN_MOTION":15.26728567,"ECCENTRICITY":0.00015825,"INCLINATION":42.9995,"RA_OF_ASC_NODE":207.0959,"ARG_OF_PERICENTER":287.005,"MEAN_ANOMALY":306.6901,"EPHEMERIS_TYPE":0,"CLASSIFICATION_TYPE":"U","NORAD_CAT_ID":56302,"ELEMENT_SET_NO":999,"REV_AT_EPOCH":578,"BSTAR":0.0014917181,"MEAN_MOTION_DOT":0.00039957,"MEAN_MOTION_DDOT":0},{"OBJECT_NAME":"LIME","OBJECT_ID":"2025-009AR","EPOCH":"2026-03-09T17:44:15.459648","MEAN_MOTION":15.28703313,"ECCENTRICITY":0.00016347,"INCLINATION":97.3985,"RA_OF_ASC_NODE":151.4831,"ARG_OF_PERICENTER":35.9029,"MEAN_ANOMALY":324.232,"EPHEMERIS_TYPE":0,"CLASSIFICATION_TYPE":"U","NORAD_CAT_ID":62648,"ELEMENT_SET_NO":999,"REV_AT_EPOCH":6376,"BSTAR":0.00047722827,"MEAN_MOTION_DOT":0.00013254,"MEAN_MOTION_DDOT":0}]
